[
    {
        "Altitude(m)": 556966.7325498831,
        "Argument of Periapsis(deg)": 0.006622991110713501,
        "Eccentricity": 0.0,
        "Inclination(deg)": 53.0,
        "Latitude(deg)": 40.09213899955611,
        "Longitude(deg)": -124.8897553121048,
        "Mean Anomaly(deg)": 126.45529286757754,
        "RAAN(deg)": 194.99014336852804,
        "Satellite Name": "Starlink Shell 1 865",
        "Satellite Number": 865,
        "Semi-Major Axis(m)": 6931778.249405717,
        "Time(s)": 190
    },
    {
        "Altitude(m)": 556883.7924651718,
        "Argument of Periapsis(deg)": 0.0069715695902247375,
        "Eccentricity": 0.0,
        "Inclination(deg)": 53.0,
        "Latitude(deg)": 39.70090230157732,
        "Longitude(deg)": -124.29288790994235,
        "Mean Anomaly(deg)": 127.08212407113433,
        "RAAN(deg)": 194.98962459845055,
        "Satellite Name": "Starlink Shell 1 865",
        "Satellite Number": 865,
        "Semi-Major Axis(m)": 6931778.249405717,
        "Time(s)": 200
    },
    {
        "Altitude(m)": 556800.6593707189,
        "Argument of Periapsis(deg)": 0.007320148069735974,
        "Eccentricity": 0.0,
        "Inclination(deg)": 53.0,
        "Latitude(deg)": 39.306171232863356,
        "Longitude(deg)": -123.70321130851441,
        "Mean Anomaly(deg)": 127.70895527469106,
        "RAAN(deg)": 194.9891058283731,
        "Satellite Name": "Starlink Shell 1 865",
        "Satellite Number": 865,
        "Semi-Major Axis(m)": 6931778.249405717,
        "Time(s)": 210
    },
    {
        "Altitude(m)": 556717.3874392742,
        "Argument of Periapsis(deg)": 0.007668726549247212,
        "Eccentricity": 0.0,
        "Inclination(deg)": 53.0,
        "Latitude(deg)": 38.90803177191525,
        "Longitude(deg)": -123.12060699168856,
        "Mean Anomaly(deg)": 128.33578647824774,
        "RAAN(deg)": 194.9885870582956,
        "Satellite Name": "Starlink Shell 1 865",
        "Satellite Number": 865,
        "Semi-Major Axis(m)": 6931778.249405717,
        "Time(s)": 220
    },
    {
        "Altitude(m)": 556634.0311242559,
        "Argument of Periapsis(deg)": 0.00801730502875845,
        "Eccentricity": 0.0,
        "Inclination(deg)": 53.0,
        "Latitude(deg)": 38.50656808537621,
        "Longitude(deg)": -122.54495571457862,
        "Mean Anomaly(deg)": 128.9626176818044,
        "RAAN(deg)": 194.98806828821816,
        "Satellite Name": "Starlink Shell 1 865",
        "Satellite Number": 865,
        "Semi-Major Axis(m)": 6931778.249405717,
        "Time(s)": 230
    },
    {
        "Altitude(m)": 556550.6451320259,
        "Argument of Periapsis(deg)": 0.008365883508269684,
        "Eccentricity": 0.0,
        "Inclination(deg)": 53.0,
        "Latitude(deg)": 38.101862546646736,
        "Longitude(deg)": -121.97613720379462,
        "Mean Anomaly(deg)": 129.58944888536115,
        "RAAN(deg)": 194.98754951814064,
        "Satellite Name": "Starlink Shell 1 865",
        "Satellite Number": 865,
        "Semi-Major Axis(m)": 6931778.249405717,
        "Time(s)": 240
    },
    {
        "Altitude(m)": 556467.2843939975,
        "Argument of Periapsis(deg)": 0.008714461987780921,
        "Eccentricity": 0.0,
        "Inclination(deg)": 53.0,
        "Latitude(deg)": 37.69399575674539,
        "Longitude(deg)": -121.41403135597817,
        "Mean Anomaly(deg)": 130.21628008891793,
        "RAAN(deg)": 194.9870307480632,
        "Satellite Name": "Starlink Shell 1 865",
        "Satellite Number": 865,
        "Semi-Major Axis(m)": 6931778.249405717,
        "Time(s)": 250
    },
    {
        "Altitude(m)": 556384.0040385919,
        "Argument of Periapsis(deg)": 0.009063040467292158,
        "Eccentricity": 0.0,
        "Inclination(deg)": 53.0,
        "Latitude(deg)": 37.28304656716672,
        "Longitude(deg)": -120.85851790948611,
        "Mean Anomaly(deg)": 130.84311129247462,
        "RAAN(deg)": 194.9865119779857,
        "Satellite Name": "Starlink Shell 1 865",
        "Satellite Number": 865,
        "Semi-Major Axis(m)": 6931778.249405717,
        "Time(s)": 260
    },
    {
        "Altitude(m)": 556300.8593630401,
        "Argument of Periapsis(deg)": 0.009411618946803396,
        "Eccentricity": 0.0,
        "Inclination(deg)": 53.0,
        "Latitude(deg)": 36.86909210451024,
        "Longitude(deg)": -120.30947610270903,
        "Mean Anomaly(deg)": 131.46994249603128,
        "RAAN(deg)": 194.98599320790825,
        "Satellite Name": "Starlink Shell 1 865",
        "Satellite Number": 865,
        "Semi-Major Axis(m)": 6931778.249405717,
        "Time(s)": 270
    },
    {
        "Altitude(m)": 556217.9058050741,
        "Argument of Periapsis(deg)": 0.009760197426314633,
        "Eccentricity": 0.0,
        "Inclination(deg)": 53.0,
        "Latitude(deg)": 36.452207796668446,
        "Longitude(deg)": -119.76678583251297,
        "Mean Anomaly(deg)": 132.096773699588,
        "RAAN(deg)": 194.9854744378308,
        "Satellite Name": "Starlink Shell 1 865",
        "Satellite Number": 865,
        "Semi-Major Axis(m)": 6931778.249405717,
        "Time(s)": 280
    },
    {
        "Altitude(m)": 556135.1989144979,
        "Argument of Periapsis(deg)": 0.01010877590582587,
        "Eccentricity": 0.0,
        "Inclination(deg)": 53.0,
        "Latitude(deg)": 36.03246740037172,
        "Longitude(deg)": -119.23032728767392,
        "Mean Anomaly(deg)": 132.72360490314475,
        "RAAN(deg)": 194.9849556677533,
        "Satellite Name": "Starlink Shell 1 865",
        "Satellite Number": 865,
        "Semi-Major Axis(m)": 6931778.249405717,
        "Time(s)": 290
    },
    {
        "Altitude(m)": 556052.7943246439,
        "Argument of Periapsis(deg)": 0.010457354385337106,
        "Eccentricity": 0.0,
        "Inclination(deg)": 53.0,
        "Latitude(deg)": 35.609943029905544,
        "Longitude(deg)": -118.69998057078409,
        "Mean Anomaly(deg)": 133.3504361067014,
        "RAAN(deg)": 194.98443689767583,
        "Satellite Name": "Starlink Shell 1 865",
        "Satellite Number": 865,
        "Semi-Major Axis(m)": 6931778.249405717,
        "Time(s)": 300
    },
    {
        "Altitude(m)": 555970.7477237673,
        "Argument of Periapsis(deg)": 0.010805932864848343,
        "Eccentricity": 0.0,
        "Inclination(deg)": 53.0,
        "Latitude(deg)": 35.184705186830634,
        "Longitude(deg)": -118.17562682210011,
        "Mean Anomaly(deg)": 133.9772673102582,
        "RAAN(deg)": 194.98391812759837,
        "Satellite Name": "Starlink Shell 1 865",
        "Satellite Number": 865,
        "Semi-Major Axis(m)": 6931778.249405717,
        "Time(s)": 310
    },
    {
        "Altitude(m)": 555889.1148263434,
        "Argument of Periapsis(deg)": 0.01115451134435958,
        "Eccentricity": 0.0,
        "Inclination(deg)": 53.0,
        "Latitude(deg)": 34.756822790544774,
        "Longitude(deg)": -117.657147820178,
        "Mean Anomaly(deg)": 134.60409851381482,
        "RAAN(deg)": 194.98339935752088,
        "Satellite Name": "Starlink Shell 1 865",
        "Satellite Number": 865,
        "Semi-Major Axis(m)": 6931778.249405717,
        "Time(s)": 320
    },
    {
        "Altitude(m)": 555807.9513443324,
        "Argument of Periapsis(deg)": 0.011503089823870818,
        "Eccentricity": 0.0,
        "Inclination(deg)": 53.0,
        "Latitude(deg)": 34.32636320953925,
        "Longitude(deg)": -117.14442557273622,
        "Mean Anomaly(deg)": 135.23092971737162,
        "RAAN(deg)": 194.9828805874434,
        "Satellite Name": "Starlink Shell 1 865",
        "Satellite Number": 865,
        "Semi-Major Axis(m)": 6931778.249405717,
        "Time(s)": 330
    },
    {
        "Altitude(m)": 555727.3129583597,
        "Argument of Periapsis(deg)": 0.011851668303382053,
        "Eccentricity": 0.0,
        "Inclination(deg)": 53.0,
        "Latitude(deg)": 33.893392293219065,
        "Longitude(deg)": -116.6373434111784,
        "Mean Anomaly(deg)": 135.8577609209283,
        "RAAN(deg)": 194.98236181736593,
        "Satellite Name": "Starlink Shell 1 865",
        "Satellite Number": 865,
        "Semi-Major Axis(m)": 6931778.249405717,
        "Time(s)": 340
    },
    {
        "Altitude(m)": 555647.2552889124,
        "Argument of Periapsis(deg)": 0.012200246782893292,
        "Eccentricity": 0.0,
        "Inclination(deg)": 53.0,
        "Latitude(deg)": 33.457974404157774,
        "Longitude(deg)": -116.135785563569,
        "Mean Anomaly(deg)": 136.48459212448503,
        "RAAN(deg)": 194.98184304728844,
        "Satellite Name": "Starlink Shell 1 865",
        "Satellite Number": 865,
        "Semi-Major Axis(m)": 6931778.249405717,
        "Time(s)": 350
    },
    {
        "Altitude(m)": 555567.8338674812,
        "Argument of Periapsis(deg)": 0.012548825262404526,
        "Eccentricity": 0.0,
        "Inclination(deg)": 53.0,
        "Latitude(deg)": 33.02017245067634,
        "Longitude(deg)": -115.63963671945652,
        "Mean Anomaly(deg)": 137.1114233280418,
        "RAAN(deg)": 194.98132427721097,
        "Satellite Name": "Starlink Shell 1 865",
        "Satellite Number": 865,
        "Semi-Major Axis(m)": 6931778.249405717,
        "Time(s)": 360
    },
    {
        "Altitude(m)": 555489.1041077273,
        "Argument of Periapsis(deg)": 0.012897403741915765,
        "Eccentricity": 0.0,
        "Inclination(deg)": 53.0,
        "Latitude(deg)": 32.58004791964449,
        "Longitude(deg)": -115.14878309991815,
        "Mean Anomaly(deg)": 137.73825453159841,
        "RAAN(deg)": 194.98080550713354,
        "Satellite Name": "Starlink Shell 1 865",
        "Satellite Number": 865,
        "Semi-Major Axis(m)": 6931778.249405717,
        "Time(s)": 370
    }
]